[{"OBJECT_NAME":"TITAN 3C TRANSTAGE DEB","OBJECT_ID":"1969-013S","EPOCH":"2026-04-05T06:22:16.617504","MEAN_MOTION":0.97800733,"ECCENTRICITY":0.02181826,"INCLINATION":1.3435,"RA_OF_ASC_NODE":60.9053,"ARG_OF_PERICENTER":46.6078,"MEAN_ANOMALY":315.5645,"EPHEMERIS_TYPE":0,"CLASSIFICATION_TYPE":"U","NORAD_CAT_ID":43514,"ELEMENT_SET_NO":999,"REV_AT_EPOCH":87764,"BSTAR":0,"MEAN_MOTION_DOT":-2.73e-6,"MEAN_MOTION_DDOT":0},{"OBJECT_NAME":"BEIDOU-2 IGSO-7","OBJECT_ID":"2018-057A","EPOCH":"2026-03-27T15:08:38.812992","MEAN_MOTION":1.00275701,"ECCENTRICITY":0.01017729,"INCLINATION":55.1838,"RA_OF_ASC_NODE":163.7722,"ARG_OF_PERICENTER":237.2605,"MEAN_ANOMALY":124.1194,"EPHEMERIS_TYPE":0,"CLASSIFICATION_TYPE":"U","NORAD_CAT_ID":43539,"ELEMENT_SET_NO":999,"REV_AT_EPOCH":2831,"BSTAR":0,"MEAN_MOTION_DOT":-1.68e-6,"MEAN_MOTION_DDOT":0},{"OBJECT_NAME":"TELSTAR 19V","OBJECT_ID":"2018-059A","EPOCH":"2026-04-05T12:26:41.704800","MEAN_MOTION":1.00274773,"ECCENTRICITY":0.00018514,"INCLINATION":0.0191,"RA_OF_ASC_NODE":179.6147,"ARG_OF_PERICENTER":259.419,"MEAN_ANOMALY":238.4521,"EPHEMERIS_TYPE":0,"CLASSIFICATION_TYPE":"U","NORAD_CAT_ID":43562,"ELEMENT_SET_NO":999,"REV_AT_EPOCH":2841,"BSTAR":0,"MEAN_MOTION_DOT":-2.78e-6,"MEAN_MOTION_DDOT":0},{"OBJECT_NAME":"TELKOM 4 (MERAH PUTIH)","OBJECT_ID":"2018-064A","EPOCH":"2026-04-05T13:15:29.525184","MEAN_MOTION":1.00271389,"ECCENTRICITY":0.00029744,"INCLINATION":0.0205,"RA_OF_ASC_NODE":121.1646,"ARG_OF_PERICENTER":300.1891,"MEAN_ANOMALY":79.361,"EPHEMERIS_TYPE":0,"CLASSIFICATION_TYPE":"U","NORAD_CAT_ID":43587,"ELEMENT_SET_NO":999,"REV_AT_EPOCH":2815,"BSTAR":0,"MEAN_MOTION_DOT":-3.42e-6,"MEAN_MOTION_DDOT":0},{"OBJECT_NAME":"TELSTAR 18V","OBJECT_ID":"2018-069A","EPOCH":"2026-04-05T12:52:38.764992","MEAN_MOTION":1.00272631,"ECCENTRICITY":0.00022034,"INCLINATION":0.013,"RA_OF_ASC_NODE":249.0414,"ARG_OF_PERICENTER":126.0041,"MEAN_ANOMALY":149.9415,"EPHEMERIS_TYPE":0,"CLASSIFICATION_TYPE":"U","NORAD_CAT_ID":43611,"ELEMENT_SET_NO":999,"REV_AT_EPOCH":2791,"BSTAR":0,"MEAN_MOTION_DOT":-2.92e-6,"MEAN_MOTION_DDOT":0},{"OBJECT_NAME":"AZERSPACE 2 (IS-38)","OBJECT_ID":"2018-074A","EPOCH":"2026-04-05T12:57:38.737152","MEAN_MOTION":1.00270514,"ECCENTRICITY":0.00014756,"INCLINATION":0.0165,"RA_OF_ASC_NODE":229.8044,"ARG_OF_PERICENTER":146.31,"MEAN_ANOMALY":57.2476,"EPHEMERIS_TYPE":0,"CLASSIFICATION_TYPE":"U","NORAD_CAT_ID":43632,"ELEMENT_SET_NO":999,"REV_AT_EPOCH":2771,"BSTAR":0,"MEAN_MOTION_DOT":1.38e-6,"MEAN_MOTION_DDOT":0},{"OBJECT_NAME":"HORIZONS-3E","OBJECT_ID":"2018-074B","EPOCH":"2026-04-05T13:32:53.968128","MEAN_MOTION":1.00272471,"ECCENTRICITY":7.652e-5,"INCLINATION":0.0034,"RA_OF_ASC_NODE":40.4553,"ARG_OF_PERICENTER":285.7021,"MEAN_ANOMALY":239.9338,"EPHEMERIS_TYPE":0,"CLASSIFICATION_TYPE":"U","NORAD_CAT_ID":43633,"ELEMENT_SET_NO":999,"REV_AT_EPOCH":2761,"BSTAR":0,"MEAN_MOTION_DOT":-2.9e-7,"MEAN_MOTION_DDOT":0},{"OBJECT_NAME":"FENGYUN 2H DEB","OBJECT_ID":"2018-050D","EPOCH":"2026-04-04T12:30:07.159680","MEAN_MOTION":1.00299805,"ECCENTRICITY":0.00737548,"INCLINATION":4.7107,"RA_OF_ASC_NODE":77.113,"ARG_OF_PERICENTER":272.8671,"MEAN_ANOMALY":86.437,"EPHEMERIS_TYPE":0,"CLASSIFICATION_TYPE":"U","NORAD_CAT_ID":43645,"ELEMENT_SET_NO":999,"REV_AT_EPOCH":2818,"BSTAR":0,"MEAN_MOTION_DOT":7.5e-7,"MEAN_MOTION_DDOT":0},{"OBJECT_NAME":"FENGYUN 2G DEB","OBJECT_ID":"2014-090D","EPOCH":"2026-04-05T10:24:50.111712","MEAN_MOTION":1.00213959,"ECCENTRICITY":0.02268881,"INCLINATION":7.3583,"RA_OF_ASC_NODE":69.1446,"ARG_OF_PERICENTER":287.9357,"MEAN_ANOMALY":69.6313,"EPHEMERIS_TYPE":0,"CLASSIFICATION_TYPE":"U","NORAD_CAT_ID":43646,"ELEMENT_SET_NO":999,"REV_AT_EPOCH":4097,"BSTAR":0,"MEAN_MOTION_DOT":-1.56e-6,"MEAN_MOTION_DDOT":0},{"OBJECT_NAME":"AEHF-4 (USA 288)","OBJECT_ID":"2018-079A","EPOCH":"2026-04-05T12:25:19.337088","MEAN_MOTION":1.00274769,"ECCENTRICITY":0.00638001,"INCLINATION":1.4227,"RA_OF_ASC_NODE":357.5556,"ARG_OF_PERICENTER":359.0737,"MEAN_ANOMALY":315.9835,"EPHEMERIS_TYPE":0,"CLASSIFICATION_TYPE":"U","NORAD_CAT_ID":43651,"ELEMENT_SET_NO":999,"REV_AT_EPOCH":2756,"BSTAR":0,"MEAN_MOTION_DOT":-2.74e-6,"MEAN_MOTION_DDOT":0},{"OBJECT_NAME":"BEIDOU-3 G1","OBJECT_ID":"2018-085A","EPOCH":"2026-04-01T20:42:38.441952","MEAN_MOTION":1.00268589,"ECCENTRICITY":0.00020589,"INCLINATION":2.882,"RA_OF_ASC_NODE":99.4564,"ARG_OF_PERICENTER":12.9832,"MEAN_ANOMALY":168.3736,"EPHEMERIS_TYPE":0,"CLASSIFICATION_TYPE":"U","NORAD_CAT_ID":43683,"ELEMENT_SET_NO":999,"REV_AT_EPOCH":2729,"BSTAR":0,"MEAN_MOTION_DOT":-2.84e-6,"MEAN_MOTION_DDOT":0},{"OBJECT_NAME":"GSAT-29","OBJECT_ID":"2018-089A","EPOCH":"2026-04-05T13:00:23.474304","MEAN_MOTION":1.00274108,"ECCENTRICITY":0.0002413,"INCLINATION":0.0428,"RA_OF_ASC_NODE":77.8133,"ARG_OF_PERICENTER":308.0237,"MEAN_ANOMALY":58.141,"EPHEMERIS_TYPE":0,"CLASSIFICATION_TYPE":"U","NORAD_CAT_ID":43698,"ELEMENT_SET_NO":999,"REV_AT_EPOCH":2705,"BSTAR":0,"MEAN_MOTION_DOT":8.6e-7,"MEAN_MOTION_DDOT":0},{"OBJECT_NAME":"ES'HAIL 2","OBJECT_ID":"2018-090A","EPOCH":"2026-04-05T07:48:38.441952","MEAN_MOTION":1.00269866,"ECCENTRICITY":0.0001268,"INCLINATION":0.0184,"RA_OF_ASC_NODE":215.8796,"ARG_OF_PERICENTER":177.5569,"MEAN_ANOMALY":303.1744,"EPHEMERIS_TYPE":0,"CLASSIFICATION_TYPE":"U","NORAD_CAT_ID":43700,"ELEMENT_SET_NO":999,"REV_AT_EPOCH":2694,"BSTAR":0,"MEAN_MOTION_DOT":1.45e-6,"MEAN_MOTION_DDOT":0},{"OBJECT_NAME":"GEO-KOMPSAT-2A","OBJECT_ID":"2018-100A","EPOCH":"2026-04-05T13:21:21.461760","MEAN_MOTION":1.00273238,"ECCENTRICITY":0.00019562,"INCLINATION":0.0518,"RA_OF_ASC_NODE":36.3478,"ARG_OF_PERICENTER":24.908,"MEAN_ANOMALY":101.2001,"EPHEMERIS_TYPE":0,"CLASSIFICATION_TYPE":"U","NORAD_CAT_ID":43823,"ELEMENT_SET_NO":999,"REV_AT_EPOCH":2690,"BSTAR":0,"MEAN_MOTION_DOT":-3.42e-6,"MEAN_MOTION_DDOT":0},{"OBJECT_NAME":"GSAT-11","OBJECT_ID":"2018-100B","EPOCH":"2026-04-05T13:16:15.604032","MEAN_MOTION":1.00272106,"ECCENTRICITY":0.0006573,"INCLINATION":0.0708,"RA_OF_ASC_NODE":261.1886,"ARG_OF_PERICENTER":163.8747,"MEAN_ANOMALY":41.8322,"EPHEMERIS_TYPE":0,"CLASSIFICATION_TYPE":"U","NORAD_CAT_ID":43824,"ELEMENT_SET_NO":999,"REV_AT_EPOCH":2674,"BSTAR":0,"MEAN_MOTION_DOT":-7.5e-7,"MEAN_MOTION_DDOT":0},{"OBJECT_NAME":"GSAT-7A","OBJECT_ID":"2018-105A","EPOCH":"2026-04-05T14:45:05.766048","MEAN_MOTION":1.00272871,"ECCENTRICITY":0.00023566,"INCLINATION":0.0259,"RA_OF_ASC_NODE":301.8282,"ARG_OF_PERICENTER":84.059,"MEAN_ANOMALY":92.092,"EPHEMERIS_TYPE":0,"CLASSIFICATION_TYPE":"U","NORAD_CAT_ID":43864,"ELEMENT_SET_NO":999,"REV_AT_EPOCH":2672,"BSTAR":0,"MEAN_MOTION_DOT":2.8e-7,"MEAN_MOTION_DDOT":0},{"OBJECT_NAME":"COSMOS 2533","OBJECT_ID":"2018-107A","EPOCH":"2026-04-04T04:33:49.237344","MEAN_MOTION":1.00271339,"ECCENTRICITY":4.479e-5,"INCLINATION":0.0329,"RA_OF_ASC_NODE":112.4058,"ARG_OF_PERICENTER":16.7453,"MEAN_ANOMALY":201.8351,"EPHEMERIS_TYPE":0,"CLASSIFICATION_TYPE":"U","NORAD_CAT_ID":43867,"ELEMENT_SET_NO":999,"REV_AT_EPOCH":2670,"BSTAR":0,"MEAN_MOTION_DOT":-3.9e-7,"MEAN_MOTION_DDOT":0}]
