TITAN 3C TRANSTAGE DEB  
1 43514U 69013S   26095.26547011 -.00000273  00000+0  00000+0 0  9995
2 43514   1.3435  60.9053 0218182  46.6078 315.5645  0.97800733877649
BEIDOU-2 IGSO-7         
1 43539U 18057A   26086.63100478 -.00000168  00000+0  00000+0 0  9990
2 43539  55.1838 163.7722 0101772 237.2605 124.1194  1.00275701 28316
TELSTAR 19V             
1 43562U 18059A   26095.51853825 -.00000278  00000+0  00000+0 0  9998
2 43562   0.0191 179.6147 0001851 259.4190 238.4521  1.00274773 28414
TELKOM 4 (MERAH PUTIH)  
1 43587U 18064A   26095.55242506 -.00000342  00000+0  00000+0 0  9995
2 43587   0.0205 121.1646 0002974 300.1891  79.3610  1.00271389 28154
TELSTAR 18V             
1 43611U 18069A   26095.53655978 -.00000292  00000+0  00000+0 0  9991
2 43611   0.0130 249.0414 0002203 126.0041 149.9415  1.00272631 27910
AZERSPACE 2 (IS-38)     
1 43632U 18074A   26095.54003168  .00000138  00000+0  00000+0 0  9997
2 43632   0.0165 229.8044 0001475 146.3100  57.2476  1.00270514 27711
HORIZONS-3E             
1 43633U 18074B   26095.56451352 -.00000029  00000+0  00000+0 0  9992
2 43633   0.0034  40.4553 0000765 285.7021 239.9338  1.00272471 27619
FENGYUN 2H DEB          
1 43645U 18050D   26094.52091620  .00000075  00000+0  00000+0 0  9992
2 43645   4.7107  77.1130 0073754 272.8671  86.4370  1.00299805 28182
FENGYUN 2G DEB          
1 43646U 14090D   26095.43391333 -.00000156  00000+0  00000+0 0  9999
2 43646   7.3583  69.1446 0226888 287.9357  69.6313  1.00213959 40974
AEHF-4 (USA 288)        
1 43651U 18079A   26095.51758492 -.00000274  00000+0  00000+0 0  9999
2 43651   1.4227 357.5556 0063800 359.0737 315.9835  1.00274769 27564
BEIDOU-3 G1             
1 43683U 18085A   26091.86294493 -.00000284  00000+0  00000+0 0  9992
2 43683   2.8820  99.4564 0002058  12.9832 168.3736  1.00268589 27296
GSAT-29                 
1 43698U 18089A   26095.54193836  .00000086  00000+0  00000+0 0  9999
2 43698   0.0428  77.8133 0002413 308.0237  58.1410  1.00274108 27054
ES'HAIL 2               
1 43700U 18090A   26095.32544493  .00000145  00000+0  00000+0 0  9996
2 43700   0.0184 215.8796 0001268 177.5569 303.1744  1.00269866 26945
GEO-KOMPSAT-2A          
1 43823U 18100A   26095.55649840 -.00000342  00000+0  00000+0 0  9991
2 43823   0.0518  36.3478 0001956  24.9080 101.2001  1.00273238 26909
GSAT-11                 
1 43824U 18100B   26095.55295838 -.00000075  00000+0  00000+0 0  9999
2 43824   0.0708 261.1886 0006573 163.8747  41.8322  1.00272106 26745
GSAT-7A                 
1 43864U 18105A   26095.61465007  .00000028  00000+0  00000+0 0  9999
2 43864   0.0259 301.8282 0002356  84.0590  92.0920  1.00272871 26726
COSMOS 2533             
1 43867U 18107A   26094.19015321 -.00000039  00000+0  00000+0 0  9999
2 43867   0.0329 112.4058 0000447  16.7453 201.8351  1.00271339 26707
